AEROCUBE 6A             
1 40045U 14033AM  26068.93083119  .00007845  00000+0  67890-3 0  9996
2 40045  97.7128 237.0691 0038730 349.0559  10.9816 14.96848607631764
STARLINK-5512           
1 57256U 23094AQ  26068.29316909 -.00000803  00000+0 -44391-4 0  9991
2 57256  43.0032  19.2095 0001230 263.4150  96.6552 15.02533718147215
